BEIDOU-2 M4             
1 38251U 12018B   26199.26464312 -.00000089  00000+0  00000+0 0  9992
2 38251  55.6290 303.0389 0012176 272.1376  87.7565  1.86229286 96523
ARIRANG-3 (KOMPSAT-3)   
1 38338U 12025B   26200.87907080  .00000198  00000+0  48515-4 0  9998
2 38338  98.1188 157.7788 0005932  26.0899 334.0600 14.62231293756128
METOP-B                 
1 38771U 12049A   26200.85096419  .00000034  00000+0  35394-4 0  9998
2 38771  98.6486 251.6955 0001250 229.9230 130.1838 14.21447199717907
SJ-9A                   
1 38860U 12056A   26200.83340409  .00000544  00000+0  68607-4 0  9993
2 38860  97.6732 171.6096 0026368 146.9302 213.3568 14.85533894704437
COSMOS 2484 (RODNIK-S 6)
1 39059U 13001C   26200.90691270  .00000035  00000+0  18105-3 0  9990
2 39059  82.5000 201.5498 0025455 325.1404  34.8008 12.42940633612626
SARAL                   
1 39086U 13009A   26200.86084688  .00000016  00000+0  21890-4 0  9997
2 39086  98.5559  27.0151 0001973 155.8466 204.2811 14.32896463700281
STRAND-1                
1 39090U 13009E   26200.49956115  .00000108  00000+0  50737-4 0  9998
2 39090  98.3939  19.9412 0009610 129.5054 230.6984 14.37180292701706
BRITE-AUSTRIA           
1 39091U 13009F   26200.73542264  .00000056  00000+0  33534-4 0  9990
2 39091  98.4013  19.3683 0011001 138.0696 222.1335 14.36553479701727
GAOFEN-1                
1 39150U 13018A   26200.86261753 -.00000079  00000+0 -40840-5 0  9997
2 39150  97.9078 272.2640 0017475 156.4461 203.7553 14.76520666713069
NEE-01 PEGASO           
1 39151U 13018B   26200.35248444  .00001491  00000+0  14616-3 0  9991
2 39151  98.1263 345.5756 0013570  62.0509 298.2082 14.93800794715507
PROBA-V                 
1 39159U 13021A   26200.87175322  .00000021  00000+0  27089-4 0  9991
2 39159  98.3608 177.8686 0005072  49.0711 311.0907 14.23603868685766
ARIRANG-5 (KOMPSAT-5)   
1 39227U 13042A   26200.82167201 -.00000127  00000+0 -47605-5 0  9998
2 39227  97.6204  27.0637 0004895  45.0853 315.0769 15.04494878708768
GONETS-M 5              
1 39249U 13048A   26200.79662697  .00000013  00000+0  22873-4 0  9994
2 39249  82.4860 323.0529 0017522 140.1575 220.0794 12.42892653582934
GONETS-M 7              
1 39251U 13048C   26200.83948685  .00000043  00000+0  23880-3 0  9997
2 39251  82.4928 325.9654 0018309 141.2954 218.9442 12.42915576582890
FENGYUN 3C              
1 39260U 13052A   26200.90691132  .00000032  00000+0  37352-4 0  9990
2 39260  98.5003 173.2834 0013521 291.3924  68.5808 14.15761311663197
CASSIOPE                
1 39265U 13055A   26200.80316890  .00015261 -52751-6  16325-3 0  9996
2 39265  80.9136  27.0224 0282017 312.2468  45.5146 15.27570999672641
APRIZESAT 7             
1 39416U 13066A   26200.82381661  .00000673  00000+0  71837-4 0  9999
2 39416  97.7723 153.5787 0037322 102.5790 257.9607 14.91625054686099
ZACUBE-1 (TSHEPISOSAT)  
1 39417U 13066B   26200.80008485  .00001230  00000+0  98515-4 0  9990
2 39417  97.8002 163.2958 0044073 140.4395 220.0060 15.01340631685621
APRIZESAT 8             
1 39425U 13066K   26200.82995963  .00000346  00000+0  43423-4 0  9992
2 39425  97.8230 147.8460 0045904 176.5766 183.5773 14.87700170684528
TRITON-1                
1 39427U 13066M   26200.84473743  .00001095  00000+0  13571-3 0  9995
2 39427  97.8217 109.9050 0090939 127.1380 233.8184 14.81805025678922
