OBJECT_NAME,OBJECT_ID,EPOCH,MEAN_MOTION,ECCENTRICITY,INCLINATION,RA_OF_ASC_NODE,ARG_OF_PERICENTER,MEAN_ANOMALY,EPHEMERIS_TYPE,CLASSIFICATION_TYPE,NORAD_CAT_ID,ELEMENT_SET_NO,REV_AT_EPOCH,BSTAR,MEAN_MOTION_DOT,MEAN_MOTION_DDOT
BEIDOU-2 M4,2012-018B,2026-07-18T06:21:05.165568,1.86229286,.00121764,55.6290,303.0389,272.1376,87.7565,0,U,38251,999,9652,0,-.89E-6,0
ARIRANG-3 (KOMPSAT-3),2012-025B,2026-07-19T21:05:51.717120,14.62231293,.0005932,98.1188,157.7788,26.0899,334.0600,0,U,38338,999,75612,.48515E-4,.198E-5,0
METOP-B,2012-049A,2026-07-19T20:25:23.306016,14.21447199,.000125,98.6486,251.6955,229.9230,130.1838,0,U,38771,999,71790,.35394E-4,.34E-6,0
SJ-9A,2012-056A,2026-07-19T20:00:06.113376,14.85533894,.0026368,97.6732,171.6096,146.9302,213.3568,0,U,38860,999,70443,.68607E-4,.544E-5,0
COSMOS 2484 (RODNIK-S 6),2013-001C,2026-07-19T21:45:57.257280,12.42940633,.0025455,82.5000,201.5498,325.1404,34.8008,0,U,39059,999,61262,.18105E-3,.35E-6,0
SARAL,2013-009A,2026-07-19T20:39:37.170432,14.32896463,.0001973,98.5559,27.0151,155.8466,204.2811,0,U,39086,999,70028,.2189E-4,.16E-6,0
STRAND-1,2013-009E,2026-07-19T11:59:22.083360,14.37180292,.00096104,98.3939,19.9412,129.5054,230.6984,0,U,39090,999,70170,.50736694E-4,.108E-5,0
BRITE-AUSTRIA,2013-009F,2026-07-19T17:39:00.516096,14.36553479,.0011001,98.4013,19.3683,138.0696,222.1335,0,U,39091,999,70172,.33534E-4,.56E-6,0
GAOFEN-1,2013-018A,2026-07-19T20:42:10.154592,14.76520666,.0017475,97.9078,272.2640,156.4461,203.7553,0,U,39150,999,71306,-.4084E-5,-.79E-6,0
NEE-01 PEGASO,2013-018B,2026-07-19T08:27:34.655616,14.93800794,.00135702,98.1263,345.5756,62.0509,298.2082,0,U,39151,999,71550,.14615917E-3,.1491E-4,0
PROBA-V,2013-021A,2026-07-19T20:55:19.478208,14.23603868,.0005072,98.3608,177.8686,49.0711,311.0907,0,U,39159,999,68576,.27089E-4,.21E-6,0
ARIRANG-5 (KOMPSAT-5),2013-042A,2026-07-19T19:43:12.461664,15.04494878,.0004895,97.6204,27.0637,45.0853,315.0769,0,U,39227,999,70876,-.47605E-5,-.127E-5,0
GONETS-M 5,2013-048A,2026-07-19T19:07:08.570208,12.42892653,.0017522,82.4860,323.0529,140.1575,220.0794,0,U,39249,999,58293,.22873E-4,.13E-6,0
GONETS-M 7,2013-048C,2026-07-19T20:08:51.663840,12.42915576,.0018309,82.4928,325.9654,141.2954,218.9442,0,U,39251,999,58289,.2388E-3,.43E-6,0
FENGYUN 3C,2013-052A,2026-07-19T21:45:57.138048,14.15761311,.0013521,98.5003,173.2834,291.3924,68.5808,0,U,39260,999,66319,.37352E-4,.32E-6,0
CASSIOPE,2013-055A,2026-07-19T19:16:33.792960,15.27570999,.0282017,80.9136,27.0224,312.2468,45.5146,0,U,39265,999,67264,.16325E-3,.15261E-3,-.52751E-6
APRIZESAT 7,2013-066A,2026-07-19T19:46:17.755104,14.91625054,.0037322,97.7723,153.5787,102.5790,257.9607,0,U,39416,999,68609,.71837E-4,.673E-5,0
ZACUBE-1 (TSHEPISOSAT),2013-066B,2026-07-19T19:12:07.331040,15.01340631,.0044073,97.8002,163.2958,140.4395,220.0060,0,U,39417,999,68562,.98515E-4,.123E-4,0
APRIZESAT 8,2013-066K,2026-07-19T19:55:08.512032,14.87700170,.0045904,97.8230,147.8460,176.5766,183.5773,0,U,39425,999,68452,.43423E-4,.346E-5,0
TRITON-1,2013-066M,2026-07-19T20:16:25.313952,14.81805025,.0090939,97.8217,109.9050,127.1380,233.8184,0,U,39427,999,67892,.13571E-3,.1095E-4,0
